start=new Date('2022-04-20T00:00:00.000Z').valueOf();
sats=[{"ECCENTRICITY":"0.00025680","NORAD_CAT_ID":"49440","TLE_LINE2":"2 49440  53.2174 102.7370 0002568  37.3334  62.6775 15.08841605 25658","ELEMENT_SET_NO":"999","RCS_SIZE":"LARGE","SITE":"AFETR","FILE":"3408750","EPHEMERIS_TYPE":"0","INCLINATION":"53.2174","GP_ID":"201639995","REV_AT_EPOCH":"2565","MEAN_MOTION_DDOT":"0.0000000000000","LAUNCH_DATE":"2021-11-13","MEAN_MOTION_DOT":"-0.00002320","MEAN_ELEMENT_THEORY":"SGP4","PERIOD":"95.437","COUNTRY_CODE":"US","SEMIMAJOR_AXIS":"6917.875","DECAY_DATE":null,"CLASSIFICATION_TYPE":"U","PERIAPSIS":"537.964","MEAN_ANOMALY":"62.6775","MEAN_MOTION":"15.08841605","REF_FRAME":"TEME","OBJECT_NAME":"STARLINK-3105","RA_OF_ASC_NODE":"102.7370","TLE_LINE1":"1 49440U 21104AJ  22109.91667824 -.00002320  00000-0 -12768-3 0  9992","OBJECT_TYPE":"PAYLOAD","ARG_OF_PERICENTER":"37.3334","BSTAR":"-0.00012768000000","EPOCH":"2022-04-19T22:00:00.999936","TIME_SYSTEM":"UTC","APOAPSIS":"541.517","OBJECT_ID":"2021-104AJ","CENTER_NAME":"EARTH"},{"RCS_SIZE":"LARGE","EPHEMERIS_TYPE":"0","FILE":"3408368","SITE":"AFETR","ECCENTRICITY":"0.00026500","ELEMENT_SET_NO":"999","TLE_LINE2":"2 49441  53.2169 104.2133 0002650  36.9351 151.4535 15.08882602  3562","NORAD_CAT_ID":"49441","REV_AT_EPOCH":"356","GP_ID":"201629825","INCLINATION":"53.2169","MEAN_MOTION_DDOT":"0.0000000000000","LAUNCH_DATE":"2021-11-13","MEAN_ELEMENT_THEORY":"SGP4","PERIOD":"95.435","MEAN_MOTION_DOT":"-0.00067183","CLASSIFICATION_TYPE":"U","COUNTRY_CODE":"US","SEMIMAJOR_AXIS":"6917.750","DECAY_DATE":null,"MEAN_ANOMALY":"151.4535","MEAN_MOTION":"15.08882602","PERIAPSIS":"537.782","ARG_OF_PERICENTER":"36.9351","REF_FRAME":"TEME","OBJECT_NAME":"STARLINK-3128","TLE_LINE1":"1 49441U 21104AK  22109.58334491 -.00067183  00000-0 -42375-2 0  9991","RA_OF_ASC_NODE":"104.2133","OBJECT_TYPE":"PAYLOAD","APOAPSIS":"541.448","TIME_SYSTEM":"UTC","OBJECT_ID":"2021-104AK","CENTER_NAME":"EARTH","BSTAR":"-0.00423750000000","EPOCH":"2022-04-19T14:00:01.000224"},{"ECCENTRICITY":"0.00025660","TLE_LINE2":"2 49442  53.2185 102.7324 0002566  43.3762  76.6216 15.08827444 25662","NORAD_CAT_ID":"49442","ELEMENT_SET_NO":"999","RCS_SIZE":"LARGE","EPHEMERIS_TYPE":"0","FILE":"3408752","SITE":"AFETR","INCLINATION":"53.2185","GP_ID":"201640215","REV_AT_EPOCH":"2566","MEAN_MOTION_DDOT":"0.0000000000000","LAUNCH_DATE":"2021-11-13","MEAN_MOTION_DOT":"0.00038510","MEAN_ELEMENT_THEORY":"SGP4","PERIOD":"95.438","COUNTRY_CODE":"US","SEMIMAJOR_AXIS":"6917.919","DECAY_DATE":null,"CLASSIFICATION_TYPE":"U","PERIAPSIS":"538.009","MEAN_ANOMALY":"76.6216","MEAN_MOTION":"15.08827444","REF_FRAME":"TEME","OBJECT_NAME":"STARLINK-3098","OBJECT_TYPE":"PAYLOAD","TLE_LINE1":"1 49442U 21104AL  22109.91667824  .00038510  00000-0  24253-2 0  9993","RA_OF_ASC_NODE":"102.7324","ARG_OF_PERICENTER":"43.3762","BSTAR":"0.00242530000000","EPOCH":"2022-04-19T22:00:00.999936","TIME_SYSTEM":"UTC","APOAPSIS":"541.559","OBJECT_ID":"2021-104AL","CENTER_NAME":"EARTH"},{"MEAN_MOTION_DDOT":"0.0000000000000","LAUNCH_DATE":"2021-11-13","PERIOD":"95.436","MEAN_ELEMENT_THEORY":"SGP4","MEAN_MOTION_DOT":"-0.00020386","FILE":"3408368","EPHEMERIS_TYPE":"0","SITE":"AFETR","RCS_SIZE":"LARGE","ELEMENT_SET_NO":"999","TLE_LINE2":"2 49443  53.2177 104.2144 0002557  34.9730 173.3254 15.08865214  3561","NORAD_CAT_ID":"49443","ECCENTRICITY":"0.00025570","REV_AT_EPOCH":"356","GP_ID":"201628323","INCLINATION":"53.2177","ARG_OF_PERICENTER":"34.9730","OBJECT_NAME":"STARLINK-3136","TLE_LINE1":"1 49443U 21104AM  22109.58334491 -.00020386  00000-0 -12654-2 0  9994","OBJECT_TYPE":"PAYLOAD","RA_OF_ASC_NODE":"104.2144","REF_FRAME":"TEME","OBJECT_ID":"2021-104AM","CENTER_NAME":"EARTH","APOAPSIS":"541.437","TIME_SYSTEM":"UTC","BSTAR":"-0.00126540000000","EPOCH":"2022-04-19T14:00:01.000224","CLASSIFICATION_TYPE":"U","DECAY_DATE":null,"COUNTRY_CODE":"US","SEMIMAJOR_AXIS":"6917.803","MEAN_MOTION":"15.08865214","MEAN_ANOMALY":"173.3254","PERIAPSIS":"537.899"},{"ARG_OF_PERICENTER":"39.9646","TLE_LINE1":"1 49444U 21104AN  22109.91667824  .00035771  00000-0  22563-2 0  9993","RA_OF_ASC_NODE":"102.7247","OBJECT_TYPE":"PAYLOAD","OBJECT_NAME":"STARLINK-3126","REF_FRAME":"TEME","CENTER_NAME":"EARTH","OBJECT_ID":"2021-104AN","APOAPSIS":"541.474","TIME_SYSTEM":"UTC","EPOCH":"2022-04-19T22:00:00.999936","BSTAR":"0.00225630000000","CLASSIFICATION_TYPE":"U","DECAY_DATE":null,"SEMIMAJOR_AXIS":"6917.984","COUNTRY_CODE":"US","MEAN_MOTION":"15.08805982","MEAN_ANOMALY":"99.9873","PERIAPSIS":"538.225","LAUNCH_DATE":"2021-11-13","MEAN_MOTION_DDOT":"0.0000000000000","PERIOD":"95.440","MEAN_ELEMENT_THEORY":"SGP4","MEAN_MOTION_DOT":"0.00035771","FILE":"3408754","SITE":"AFETR","EPHEMERIS_TYPE":"0","RCS_SIZE":"LARGE","TLE_LINE2":"2 49444  53.2180 102.7247 0002348  39.9646  99.9873 15.08805982 25652","ELEMENT_SET_NO":"999","NORAD_CAT_ID":"49444","ECCENTRICITY":"0.00023480","REV_AT_EPOCH":"2565","GP_ID":"201640232","INCLINATION":"53.2180"},{"MEAN_ELEMENT_THEORY":"SGP4","PERIOD":"95.437","MEAN_MOTION_DOT":"0.00001882","MEAN_MOTION_DDOT":"0.0000000000000","LAUNCH_DATE":"2021-11-13","REV_AT_EPOCH":"2552","GP_ID":"201640055","INCLINATION":"53.2159","RCS_SIZE":"LARGE","EPHEMERIS_TYPE":"0","FILE":"3408757","SITE":"AFETR","ECCENTRICITY":"0.00025040","TLE_LINE2":"2 49445  53.2159 112.7335 0002504  31.4531  33.5117 15.08844355 25520","ELEMENT_SET_NO":"999","NORAD_CAT_ID":"49445","TIME_SYSTEM":"UTC","APOAPSIS":"541.464","OBJECT_ID":"2021-104AP","CENTER_NAME":"EARTH","BSTAR":"0.00013631000000","EPOCH":"2022-04-19T22:00:00.999936","ARG_OF_PERICENTER":"31.4531","REF_FRAME":"TEME","OBJECT_NAME":"STARLINK-3122","TLE_LINE1":"1 49445U 21104AP  22109.91667824  .00001882  00000-0  13631-3 0  9997","OBJECT_TYPE":"PAYLOAD","RA_OF_ASC_NODE":"112.7335","MEAN_ANOMALY":"33.5117","MEAN_MOTION":"15.08844355","PERIAPSIS":"538.000","CLASSIFICATION_TYPE":"U","COUNTRY_CODE":"US","SEMIMAJOR_AXIS":"6917.867","DECAY_DATE":null},{"MEAN_ANOMALY":"120.8623","MEAN_MOTION":"15.08853856","PERIAPSIS":"537.888","CLASSIFICATION_TYPE":"U","COUNTRY_CODE":"US","SEMIMAJOR_AXIS":"6917.838","DECAY_DATE":null,"TIME_SYSTEM":"UTC","APOAPSIS":"541.518","OBJECT_ID":"2021-104AQ","CENTER_NAME":"EARTH","BSTAR":"-0.00113300000000","EPOCH":"2022-04-19T14:00:01.000224","ARG_OF_PERICENTER":"27.5299","REF_FRAME":"TEME","OBJECT_NAME":"STARLINK-3099","RA_OF_ASC_NODE":"104.2198","TLE_LINE1":"1 49446U 21104AQ  22109.58334491 -.00018283  00000-0 -11330-2 0  9990","OBJECT_TYPE":"PAYLOAD","REV_AT_EPOCH":"356","GP_ID":"201630076","INCLINATION":"53.2176","RCS_SIZE":"LARGE","FILE":"3408368","SITE":"AFETR","EPHEMERIS_TYPE":"0","ECCENTRICITY":"0.00026230","TLE_LINE2":"2 49446  53.2176 104.2198 0002623  27.5299 120.8623 15.08853856  3560","ELEMENT_SET_NO":"999","NORAD_CAT_ID":"49446","MEAN_ELEMENT_THEORY":"SGP4","PERIOD":"95.437","MEAN_MOTION_DOT":"-0.00018283","MEAN_MOTION_DDOT":"0.0000000000000","LAUNCH_DATE":"2021-11-13"},{"MEAN_ANOMALY":"77.0749","MEAN_MOTION":"15.08828048","PERIAPSIS":"537.998","CLASSIFICATION_TYPE":"U","COUNTRY_CODE":"US","SEMIMAJOR_AXIS":"6917.917","DECAY_DATE":null,"APOAPSIS":"541.565","TIME_SYSTEM":"UTC","OBJECT_ID":"2021-104AR","CENTER_NAME":"EARTH","BSTAR":"0.00282210000000","EPOCH":"2022-04-19T22:00:00.999936","ARG_OF_PERICENTER":"27.8931","REF_FRAME":"TEME","OBJECT_NAME":"STARLINK-3115","TLE_LINE1":"1 49447U 21104AR  22109.91667824  .00044899  00000-0  28221-2 0  9994","OBJECT_TYPE":"PAYLOAD","RA_OF_ASC_NODE":"112.7409","REV_AT_EPOCH":"2551","INCLINATION":"53.2176","GP_ID":"201640031","RCS_SIZE":"LARGE","EPHEMERIS_TYPE":"0","FILE":"3408754","SITE":"AFETR","ECCENTRICITY":"0.00025780","ELEMENT_SET_NO":"999","TLE_LINE2":"2 49447  53.2176 112.7409 0002578  27.8931  77.0749 15.08828048 25511","NORAD_CAT_ID":"49447","MEAN_ELEMENT_THEORY":"SGP4","PERIOD":"95.438","MEAN_MOTION_DOT":"0.00044899","MEAN_MOTION_DDOT":"0.0000000000000","LAUNCH_DATE":"2021-11-13"},{"REV_AT_EPOCH":"357","INCLINATION":"53.2161","GP_ID":"201629074","EPHEMERIS_TYPE":"0","FILE":"3408368","SITE":"AFETR","RCS_SIZE":"LARGE","ELEMENT_SET_NO":"999","TLE_LINE2":"2 49448  53.2161 114.2347 0002768  36.0977 357.2015 15.08857458  3575","NORAD_CAT_ID":"49448","ECCENTRICITY":"0.00027680","PERIOD":"95.436","MEAN_ELEMENT_THEORY":"SGP4","MEAN_MOTION_DOT":"-0.00011810","MEAN_MOTION_DDOT":"0.0000000000000","LAUNCH_DATE":"2021-11-13","MEAN_MOTION":"15.08857458","MEAN_ANOMALY":"357.2015","PERIAPSIS":"537.777","CLASSIFICATION_TYPE":"U","DECAY_DATE":null,"COUNTRY_CODE":"US","SEMIMAJOR_AXIS":"6917.827","OBJECT_ID":"2021-104AS","CENTER_NAME":"EARTH","APOAPSIS":"541.607","TIME_SYSTEM":"UTC","BSTAR":"-0.00072470000000","EPOCH":"2022-04-19T14:00:01.000224","ARG_OF_PERICENTER":"36.0977","OBJECT_NAME":"STARLINK-3097","RA_OF_ASC_NODE":"114.2347","TLE_LINE1":"1 49448U 21104AS  22109.58334491 -.00011810  00000-0 -72470-3 0  9994","OBJECT_TYPE":"PAYLOAD","REF_FRAME":"TEME"},{"MEAN_ANOMALY":"81.9406","MEAN_MOTION":"15.08877775","PERIAPSIS":"537.853","CLASSIFICATION_TYPE":"U","COUNTRY_CODE":"US","SEMIMAJOR_AXIS":"6917.765","DECAY_DATE":null,"TIME_SYSTEM":"UTC","APOAPSIS":"541.407","OBJECT_ID":"2021-104AT","CENTER_NAME":"EARTH","BSTAR":"-0.00331090000000","EPOCH":"2022-04-19T14:00:01.000224","ARG_OF_PERICENTER":"31.4427","REF_FRAME":"TEME","OBJECT_NAME":"STARLINK-3137","OBJECT_TYPE":"PAYLOAD","TLE_LINE1":"1 49449U 21104AT  22109.58334491 -.00052654  00000-0 -33109-2 0  9991","RA_OF_ASC_NODE":"114.2123","REV_AT_EPOCH":"357","INCLINATION":"53.2175","GP_ID":"201629826","RCS_SIZE":"LARGE","FILE":"3408368","SITE":"AFETR","EPHEMERIS_TYPE":"0","ECCENTRICITY":"0.00025690","TLE_LINE2":"2 49449  53.2175 114.2123 0002569  31.4427  81.9406 15.08877775  3570","ELEMENT_SET_NO":"999","NORAD_CAT_ID":"49449","MEAN_ELEMENT_THEORY":"SGP4","PERIOD":"95.435","MEAN_MOTION_DOT":"-0.00052654","MEAN_MOTION_DDOT":"0.0000000000000","LAUNCH_DATE":"2021-11-13"}];
